{
  "type": "FeatureCollection",
  "features": [
    {
      "type": "Feature",
      "properties": {
        "norad_id": 34492,
        "name": "IRIDIUM 33 DEB",
        "group": "iridium-33-debris",
        "lat": 57.124824895391605,
        "lon": -20.925576230649174,
        "alt_km": 934.9485339501653,
        "timestamp": "2025-12-15T07:02:38.000106+00:00",
        "meta_object_name": "IRIDIUM 33 DEB",
        "meta_object_id": "1997-051GH",
        "meta_epoch": "2025-12-14T05:35:02.651712",
        "meta_mean_motion": 14.25773186,
        "meta_eccentricity": 0.01889467,
        "meta_inclination": 86.4719,
        "meta_ra_of_asc_node": 334.0254,
        "meta_arg_of_pericenter": 233.3245,
        "meta_mean_anomaly": 142.6912,
        "meta_ephemeris_type": 0,
        "meta_classification_type": "U",
        "meta_norad_cat_id": 34492,
        "meta_element_set_no": 999,
        "meta_rev_at_epoch": 85080,
        "meta_bstar": 0.00441868,
        "meta_mean_motion_dot": 0.00012689,
        "meta_mean_motion_ddot": 0,
        "tle_line1": "1 34492U 97051GH  25348.23266958  .00012689  00000+0  44187-2 0  9998",
        "tle_line2": "2 34492  86.4719 334.0254 0188946 233.3245 142.6912 14.25773186850808"
      },
      "geometry": {
        "type": "Point",
        "coordinates": [
          -20.925576230649174,
          57.124824895391605
        ]
      }
    },
    {
      "type": "Feature",
      "properties": {
        "norad_id": 34497,
        "name": "IRIDIUM 33 DEB",
        "group": "iridium-33-debris",
        "lat": -48.715309723177675,
        "lon": 47.05917004781194,
        "alt_km": 754.0783849490017,
        "timestamp": "2025-12-15T07:02:38.000116+00:00",
        "meta_object_name": "IRIDIUM 33 DEB",
        "meta_object_id": "1997-051GN",
        "meta_epoch": "2025-12-14T04:36:28.717920",
        "meta_mean_motion": 14.27459582,
        "meta_eccentricity": 0.00786328,
        "meta_inclination": 86.278,
        "meta_ra_of_asc_node": 51.7811,
        "meta_arg_of_pericenter": 334.8541,
        "meta_mean_anomaly": 79.7978,
        "meta_ephemeris_type": 0,
        "meta_classification_type": "U",
        "meta_norad_cat_id": 34497,
        "meta_element_set_no": 999,
        "meta_rev_at_epoch": 86904,
        "meta_bstar": 0.00073972606,
        "meta_mean_motion_dot": 1.894e-05,
        "meta_mean_motion_ddot": 0,
        "tle_line1": "1 34497U 97051GN  25348.19199905  .00001894  00000+0  73973-3 0  9997",
        "tle_line2": "2 34497  86.2780  51.7811 0078632 334.8541  79.7978 14.27459582869048"
      },
      "geometry": {
        "type": "Point",
        "coordinates": [
          47.05917004781194,
          -48.715309723177675
        ]
      }
    },
    {
      "type": "Feature",
      "properties": {
        "norad_id": 34508,
        "name": "IRIDIUM 33 DEB",
        "group": "iridium-33-debris",
        "lat": -30.974266442085344,
        "lon": -76.25566736418884,
        "alt_km": 736.8045799031479,
        "timestamp": "2025-12-15T07:02:38.000127+00:00",
        "meta_object_name": "IRIDIUM 33 DEB",
        "meta_object_id": "1997-051GZ",
        "meta_epoch": "2025-12-14T20:03:08.871840",
        "meta_mean_motion": 14.38447206,
        "meta_eccentricity": 0.00662823,
        "meta_inclination": 86.3701,
        "meta_ra_of_asc_node": 101.7548,
        "meta_arg_of_pericenter": 166.2029,
        "meta_mean_anomaly": 194.1001,
        "meta_ephemeris_type": 0,
        "meta_classification_type": "U",
        "meta_norad_cat_id": 34508,
        "meta_element_set_no": 999,
        "meta_rev_at_epoch": 87339,
        "meta_bstar": 0.0010114018,
        "meta_mean_motion_dot": 3.185e-05,
        "meta_mean_motion_ddot": 0,
        "tle_line1": "1 34508U 97051GZ  25348.83551935  .00003185  00000+0  10114-2 0  9998",
        "tle_line2": "2 34508  86.3701 101.7548 0066282 166.2029 194.1001 14.38447206873398"
      },
      "geometry": {
        "type": "Point",
        "coordinates": [
          -76.25566736418884,
          -30.974266442085344
        ]
      }
    },
    {
      "type": "Feature",
      "properties": {
        "norad_id": 34521,
        "name": "IRIDIUM 33 DEB",
        "group": "iridium-33-debris",
        "lat": -76.66350828030195,
        "lon": -135.08885985563606,
        "alt_km": 688.9453872569684,
        "timestamp": "2025-12-15T07:02:38.000137+00:00",
        "meta_object_name": "IRIDIUM 33 DEB",
        "meta_object_id": "1997-051HN",
        "meta_epoch": "2025-12-14T15:06:09.043776",
        "meta_mean_motion": 14.63387845,
        "meta_eccentricity": 0.00017707,
        "meta_inclination": 86.3804,
        "meta_ra_of_asc_node": 29.7165,
        "meta_arg_of_pericenter": 204.6186,
        "meta_mean_anomaly": 155.4942,
        "meta_ephemeris_type": 0,
        "meta_classification_type": "U",
        "meta_norad_cat_id": 34521,
        "meta_element_set_no": 999,
        "meta_rev_at_epoch": 88500,
        "meta_bstar": 0.00071495882,
        "meta_mean_motion_dot": 3.716e-05,
        "meta_mean_motion_ddot": 0,
        "tle_line1": "1 34521U 97051HN  25348.62927134  .00003716  00000+0  71496-3 0  9999",
        "tle_line2": "2 34521  86.3804  29.7165 0001770 204.6186 155.4942 14.63387845885008"
      },
      "geometry": {
        "type": "Point",
        "coordinates": [
          -135.08885985563606,
          -76.66350828030195
        ]
      }
    },
    {
      "type": "Feature",
      "properties": {
        "norad_id": 34525,
        "name": "IRIDIUM 33 DEB",
        "group": "iridium-33-debris",
        "lat": -67.99116889862273,
        "lon": -125.21721469144988,
        "alt_km": 760.6527217196226,
        "timestamp": "2025-12-15T07:02:38.000148+00:00",
        "meta_object_name": "IRIDIUM 33 DEB",
        "meta_object_id": "1997-051HS",
        "meta_epoch": "2025-12-14T22:24:28.051200",
        "meta_mean_motion": 14.42910535,
        "meta_eccentricity": 0.00066074,
        "meta_inclination": 86.3728,
        "meta_ra_of_asc_node": 45.9075,
        "meta_arg_of_pericenter": 90.0791,
        "meta_mean_anomaly": 90.146,
        "meta_ephemeris_type": 0,
        "meta_classification_type": "U",
        "meta_norad_cat_id": 34525,
        "meta_element_set_no": 999,
        "meta_rev_at_epoch": 88119,
        "meta_bstar": 0.00036871776,
        "meta_mean_motion_dot": 1.252e-05,
        "meta_mean_motion_ddot": 0,
        "tle_line1": "1 34525U 97051HS  25348.93365800  .00001252  00000+0  36872-3 0  9995",
        "tle_line2": "2 34525  86.3728  45.9075 0006607  90.0791  90.1460 14.42910535881191"
      },
      "geometry": {
        "type": "Point",
        "coordinates": [
          -125.21721469144988,
          -67.99116889862273
        ]
      }
    },
    {
      "type": "Feature",
      "properties": {
        "norad_id": 34529,
        "name": "IRIDIUM 33 DEB",
        "group": "iridium-33-debris",
        "lat": 57.839673763576684,
        "lon": -151.48075408885887,
        "alt_km": 748.5172346050867,
        "timestamp": "2025-12-15T07:02:38.000158+00:00",
        "meta_object_name": "IRIDIUM 33 DEB",
        "meta_object_id": "1997-051HW",
        "meta_epoch": "2025-12-14T13:48:34.646400",
        "meta_mean_motion": 14.40617345,
        "meta_eccentricity": 0.00050347,
        "meta_inclination": 86.3641,
        "meta_ra_of_asc_node": 34.6293,
        "meta_arg_of_pericenter": 171.129,
        "meta_mean_anomaly": 188.9999,
        "meta_ephemeris_type": 0,
        "meta_classification_type": "U",
        "meta_norad_cat_id": 34529,
        "meta_element_set_no": 999,
        "meta_rev_at_epoch": 88168,
        "meta_bstar": 0.00013414701,
        "meta_mean_motion_dot": 4.47e-06,
        "meta_mean_motion_ddot": 0,
        "tle_line1": "1 34529U 97051HW  25348.57540100  .00000447  00000+0  13415-3 0  9990",
        "tle_line2": "2 34529  86.3641  34.6293 0005034 171.1290 188.9999 14.40617345881682"
      },
      "geometry": {
        "type": "Point",
        "coordinates": [
          -151.48075408885887,
          57.839673763576684
        ]
      }
    },
    {
      "type": "Feature",
      "properties": {
        "norad_id": 34538,
        "name": "IRIDIUM 33 DEB",
        "group": "iridium-33-debris",
        "lat": -22.160612729871858,
        "lon": 2.918429267922151,
        "alt_km": 733.0599595269441,
        "timestamp": "2025-12-15T07:02:38.000182+00:00",
        "meta_object_name": "IRIDIUM 33 DEB",
        "meta_object_id": "1997-051JF",
        "meta_epoch": "2025-12-14T13:26:23.381376",
        "meta_mean_motion": 14.42661494,
        "meta_eccentricity": 0.00326631,
        "meta_inclination": 86.2774,
        "meta_ra_of_asc_node": 4.759,
        "meta_arg_of_pericenter": 321.814,
        "meta_mean_anomaly": 168.8853,
        "meta_ephemeris_type": 0,
        "meta_classification_type": "U",
        "meta_norad_cat_id": 34538,
        "meta_element_set_no": 999,
        "meta_rev_at_epoch": 87782,
        "meta_bstar": 0.00092596448,
        "meta_mean_motion_dot": 3.116e-05,
        "meta_mean_motion_ddot": 0,
        "tle_line1": "1 34538U 97051JF  25348.55999284  .00003116  00000+0  92596-3 0  9992",
        "tle_line2": "2 34538  86.2774   4.7590 0032663 321.8140 168.8853 14.42661494877825"
      },
      "geometry": {
        "type": "Point",
        "coordinates": [
          2.918429267922151,
          -22.160612729871858
        ]
      }
    }
  ]
}